NORAD_CAT_ID,OBJECT_NAME,OBJECT_TYPE,EPOCH,MEAN_MOTION,ECCENTRICITY,INCLINATION,RA_OF_ASC_NODE,ARG_OF_PERICENTER,MEAN_ANOMALY,BSTAR,MEAN_MOTION_DOT,MEAN_MOTION_DDOT,TLE_LINE0,TLE_LINE1,TLE_LINE2,SEMIMAJOR_AXIS,PERIOD,APOGEE,PERIGEE,DECAYED
48148,STARLINK-2491,PAYLOAD,2021-08-17 07:19:09,15.06396787,0.00022030000000000004,53.0573,87.8101,84.3985,275.7256,-5.6968999999999996e-05,-1.13e-05,0.0,0 STARLINK-2491,1 48148U 21027BJ  21229.30497139 -.00001130  00000-0 -56969-4 0  9995,2 48148  53.0573  87.8101 0002203  84.3985 275.7256 15.06396787 21390,6925.358,95.59200000000001,548.749,545.698,0.0
48148,STARLINK-2491,PAYLOAD,2021-08-17 15:16:51,15.06397388,0.00021840000000000002,53.0572,86.3208,84.6989,275.4249,-7.1086e-05,-1.34e-05,0.0,0 STARLINK-2491,1 48148U 21027BJ  21229.63670586 -.00001340  00000-0 -71086-4 0  9990,2 48148  53.0572  86.3208 0002184  84.6989 275.4249 15.06397388 21449,6925.357,95.59200000000001,548.734,545.7090000000002,0.0
48148,STARLINK-2491,PAYLOAD,2021-08-18 00:50:05,15.06398417,0.00022040000000000002,53.0573,84.5339,85.5452,274.5789,-5.1769e-05,-1.053e-05,0.0,0 STARLINK-2491,1 48148U 21027BJ  21230.03478558 -.00001053  00000-0 -51769-4 0  9998,2 48148  53.0573  84.5339 0002204  85.5452 274.5789 15.06398417 21110,6925.353,95.59200000000001,548.745,545.692,0.0
48148,STARLINK-2491,PAYLOAD,2021-08-18 07:12:14,15.06398328,0.0002201,53.0574,83.3425,85.6373,274.4868,-3.5246999999999996e-05,-8.07e-06,0.0,0 STARLINK-2491,1 48148U 21027BJ  21230.30017239 -.00000807  00000-0 -35247-4 0  9992,2 48148  53.0574  83.3425 0002201  85.6373 274.4868 15.06398328 21549,6925.354,95.59200000000001,548.743,545.694,0.0
48148,STARLINK-2491,PAYLOAD,2021-08-18 19:56:33,15.06394324,0.0002133,53.0572,80.96,88.0149,272.1084,5.6152e-05,5.55e-06,0.0,0 STARLINK-2491,1 48148U 21027BJ  21230.83094693  .00000555  00000-0  56152-4 0  9995,2 48148  53.0572  80.9600 0002133  88.0149 272.1084 15.06394324 21623,6925.366,95.59299999999999,548.7080000000002,545.754,0.0
48148,STARLINK-2491,PAYLOAD,2021-08-19 02:18:43,15.06395492,0.00021480000000000002,53.0571,79.7686,88.3916,271.7319,6.2045e-05,6.42e-06,0.0,0 STARLINK-2491,1 48148U 21027BJ  21231.09633381  .00000642  00000-0  62045-4 0  9992,2 48148  53.0571  79.7686 0002148  88.3916 271.7319 15.06395492 21277,6925.361999999999,95.59200000000001,548.715,545.74,0.0
48148,STARLINK-2491,PAYLOAD,2021-08-19 13:27:29,15.06396916,0.0002145,53.0571,77.6837,89.9757,270.1477,5.4522e-05,5.3e-06,0.0,0 STARLINK-2491,1 48148U 21027BJ  21231.56076121  .00000530  00000-0  54522-4 0  9994,2 48148  53.0571  77.6837 0002145  89.9757 270.1477 15.06396916 21730,6925.358,95.59200000000001,548.7080000000002,545.738,0.0
48148,STARLINK-2491,PAYLOAD,2021-08-19 18:14:06,15.06398515,0.00021459999999999998,53.0572,76.7902,90.2927,269.8308,5.6112e-05,5.54e-06,0.0,0 STARLINK-2491,1 48148U 21027BJ  21231.75980053  .00000554  00000-0  56112-4 0  9996,2 48148  53.0572  76.7902 0002146  90.2927 269.8308 15.06398515 21767,6925.353,95.59200000000001,548.7040000000002,545.732,0.0
48148,STARLINK-2491,PAYLOAD,2021-08-20 06:58:25,15.06401466,0.00021519999999999997,53.0573,74.4075,90.5336,269.59,5.9531e-05,6.05e-06,0.0,0 STARLINK-2491,1 48148U 21027BJ  21232.29057219  .00000605  00000-0  59531-4 0  9990,2 48148  53.0573  74.4075 0002152  90.5336 269.5900 15.06401466 21842,6925.344,95.59200000000001,548.6990000000002,545.719,0.0
48148,STARLINK-2491,PAYLOAD,2021-08-20 19:42:44,15.0640207,0.00021600000000000002,53.0573,72.0248,91.7526,268.371,3.0969e-05,1.8000000000000001e-06,0.0,0 STARLINK-2491,1 48148U 21027BJ  21232.82134554  .00000180  00000-0  30969-4 0  9999,2 48148  53.0573  72.0248 0002160  91.7526 268.3710 15.06402070 21535,6925.342,95.59200000000001,548.703,545.711,0.0
48148,STARLINK-2491,PAYLOAD,2021-08-21 00:29:22,15.06391856,0.00021430000000000009,53.0573,71.1313,91.296,268.8274,-5.9321000000000003e-05,-1.165e-05,0.0,0 STARLINK-2491,1 48148U 21027BJ  21233.02039549 -.00001165  00000-0 -59321-4 0  9999,2 48148  53.0573  71.1313 0002143  91.2960 268.8274 15.06391856 21568,6925.374,95.59299999999999,548.7230000000002,545.754,0.0
48148,STARLINK-2491,PAYLOAD,2021-08-21 13:13:41,15.06391225,0.00021180000000000005,53.0573,68.7489,91.4226,268.7006,-6.0614e-05,-1.184e-05,0.0,0 STARLINK-2491,1 48148U 21027BJ  21233.55117184 -.00001184  00000-0 -60614-4 0  9997,2 48148  53.0573  68.7489 0002118  91.4226 268.7006 15.06391225 22038,6925.375,95.59299999999999,548.707,545.774,0.0
48148,STARLINK-2491,PAYLOAD,2021-08-21 21:11:23,15.06392589,0.0002124,53.0574,67.2597,93.5731,266.5501,-5.9968999999999995e-05,-1.175e-05,0.0,0 STARLINK-2491,1 48148U 21027BJ  21233.88290607 -.00001175  00000-0 -59969-4 0  9996,2 48148  53.0574  67.2597 0002124  93.5731 266.5501 15.06392589 22089,6925.371,95.59299999999999,548.707,545.765,0.0
48148,STARLINK-2491,PAYLOAD,2021-08-22 13:06:46,15.06393136,0.0002089,53.0575,64.2812,94.7492,265.3735,-5.07e-05,-1.037e-05,0.0,0 STARLINK-2491,1 48148U 21027BJ  21234.54637554 -.00001037  00000-0 -50700-4 0  9997,2 48148  53.0575  64.2812 0002089  94.7492 265.3735 15.06393136 22180,6925.37,95.59299999999999,548.681,545.788,0.0
48148,STARLINK-2491,PAYLOAD,2021-08-22 19:28:56,15.06394425,0.00020800000000000001,53.0576,63.0897,96.0765,264.0461,-4.7061e-05,-9.83e-06,0.0,0 STARLINK-2491,1 48148U 21027BJ  21234.81176272 -.00000983  00000-0 -47061-4 0  9997,2 48148  53.0576  63.0897 0002080  96.0765 264.0461 15.06394425 21835,6925.366,95.59200000000001,548.6709999999998,545.79,0.0
48148,STARLINK-2491,PAYLOAD,2021-08-22 21:04:28,15.06394907,0.00020899999999999998,53.0576,62.792,95.286,264.8368,-4.9087e-05,-1.013e-05,0.0,0 STARLINK-2491,1 48148U 21027BJ  21234.87810965 -.00001013  00000-0 -49087-4 0  9992,2 48148  53.0576  62.7920 0002090  95.2860 264.8368 15.06394907 22230,6925.364000000001,95.59200000000001,548.677,545.7819999999998,0.0
48148,STARLINK-2491,PAYLOAD,2021-08-23 05:02:10,15.06392588,0.0002043,53.0576,61.3029,96.589,263.5332,-5.0744e-06,-3.57e-06,0.0,0 STARLINK-2491,1 48148U 21027BJ  21235.20984494 -.00000357  00000-0 -50744-5 0  9992,2 48148  53.0576  61.3029 0002043  96.5890 263.5332 15.06392588 22285,6925.371,95.59299999999999,548.651,545.821,0.0
48148,STARLINK-2491,PAYLOAD,2021-08-23 19:22:02,15.06391377,0.0002053,53.0577,58.6224,96.9172,263.2051,4.9097e-05,4.49e-06,0.0,0 STARLINK-2491,1 48148U 21027BJ  21235.80696902  .00000449  00000-0  49097-4 0  9990,2 48148  53.0577  58.6224 0002053  96.9172 263.2051 15.06391377 22370,6925.375,95.59299999999999,548.6619999999998,545.818,0.0
48148,STARLINK-2491,PAYLOAD,2021-08-24 00:08:39,15.06392751,0.0002056,53.0577,57.729,97.1026,263.0197,5.8761e-05,5.93e-06,0.0,0 STARLINK-2491,1 48148U 21027BJ  21236.00600917  .00000593  00000-0  58761-4 0  9992,2 48148  53.0577  57.7290 0002056  97.1026 263.0197 15.06392751 22014,6925.371,95.59299999999999,548.66,545.812,0.0
48148,STARLINK-2491,PAYLOAD,2021-08-24 12:52:58,15.06394067,0.00020459999999999999,53.0578,55.3462,98.2251,261.897,4.101e-05,3.29e-06,0.0,0 STARLINK-2491,1 48148U 21027BJ  21236.53678545  .00000329  00000-0  41010-4 0  9998,2 48148  53.0578  55.3462 0002046  98.2251 261.8970 15.06394067 22489,6925.3669999999975,95.59299999999999,548.649,545.815,0.0
48148,STARLINK-2491,PAYLOAD,2021-08-24 20:50:39,15.06395914,0.0002035,53.0578,53.8572,99.0155,261.1064,5.1177e-05,4.81e-06,0.0,0 STARLINK-2491,1 48148U 21027BJ  21236.86851834  .00000481  00000-0  51177-4 0  9992,2 48148  53.0578  53.8572 0002035  99.0155 261.1064 15.06395914 22539,6925.361,95.59200000000001,548.635,545.817,0.0
48148,STARLINK-2491,PAYLOAD,2021-08-25 11:10:31,15.06398226,0.0002032,53.0578,51.1766,100.8299,259.2919,5.8473e-05,5.89e-06,0.0,0 STARLINK-2491,1 48148U 21027BJ  21237.46563858  .00000589  00000-0  58473-4 0  9990,2 48148  53.0578  51.1766 0002032 100.8299 259.2919 15.06398226 22628,6925.354,95.59200000000001,548.626,545.812,0.0
48148,STARLINK-2491,PAYLOAD,2021-08-25 19:08:12,15.06400773,0.0002031,53.0578,49.6875,101.4674,258.6543,5.6463999999999987e-05,5.59e-06,0.0,0 STARLINK-2491,1 48148U 21027BJ  21237.79737066  .00000559  00000-0  56464-4 0  9995,2 48148  53.0578  49.6875 0002031 101.4674 258.6543 15.06400773 22676,6925.346,95.59200000000001,548.618,545.805,0.0
48148,STARLINK-2491,PAYLOAD,2021-08-26 11:03:36,15.06403495,0.00020150000000000002,53.0578,46.7093,103.0775,257.0439,6.929399999999999e-05,7.51e-06,0.0,0 STARLINK-2491,1 48148U 21027BJ  21238.46083455  .00000751  00000-0  69294-4 0  9995,2 48148  53.0578  46.7093 0002015 103.0775 257.0439 15.06403495 22770,6925.3380000000025,95.59200000000001,548.5980000000002,545.807,0.0
48148,STARLINK-2491,PAYLOAD,2021-08-26 17:25:45,15.06406303,0.0002011,53.0579,45.518,103.5859,256.5354,7.5067e-05,8.37e-06,0.0,0 STARLINK-2491,1 48148U 21027BJ  21238.72621846  .00000837  00000-0  75067-4 0  9996,2 48148  53.0579  45.5180 0002011 103.5859 256.5354 15.06406303 22815,6925.329000000002,95.59200000000001,548.587,545.802,0.0
48148,STARLINK-2491,PAYLOAD,2021-08-27 04:34:32,15.06392025,0.0001927,53.0577,43.433,105.3637,254.7565,-6.2275e-05,-1.209e-05,0.0,0 STARLINK-2491,1 48148U 21027BJ  21239.19065835 -.00001209  00000-0 -62275-4 0  9991,2 48148  53.0577  43.4330 0001927 105.3637 254.7565 15.06392025 22882,6925.373000000001,95.59299999999999,548.573,545.903,0.0
48148,STARLINK-2491,PAYLOAD,2021-08-27 17:18:51,15.06394847,0.00018899999999999999,53.0576,41.0501,106.1802,253.9395,-6.937600000000001e-05,-1.315e-05,0.0,0 STARLINK-2491,1 48148U 21027BJ  21239.72143202 -.00001315  00000-0 -69376-4 0  9992,2 48148  53.0576  41.0501 0001890 106.1802 253.9395 15.06394847 22962,6925.364000000001,95.59200000000001,548.538,545.92,0.0
48148,STARLINK-2491,PAYLOAD,2021-08-28 17:11:56,15.06404034,0.0001792,53.0579,36.5827,107.3785,252.74,2.3118e-05,6.3e-07,0.0,0 STARLINK-2491,1 48148U 21027BJ  21240.71662637  .00000063  00000-0  23118-4 0  9992,2 48148  53.0579  36.5827 0001792 107.3785 252.7400 15.06404034 22727,6925.3359999999975,95.59200000000001,548.442,545.96,0.0
